{
    "links": {
        "self": "http://www.neowsapp.com/rest/v1/neo/3180179?api_key=iIulBulltgU6a56xZRHN4H3l9WmuAYTsLGpBGhQ2"
    },
    "id": "3180179",
    "neo_reference_id": "3180179",
    "name": "(2004 HT38)",
    "designation": "2004 HT38",
    "nasa_jpl_url": "http://ssd.jpl.nasa.gov/sbdb.cgi?sstr=3180179",
    "absolute_magnitude_h": 23.6,
    "estimated_diameter": {
        "kilometers": {
            "estimated_diameter_min": 0.0506471459,
            "estimated_diameter_max": 0.1132504611
        },
        "meters": {
            "estimated_diameter_min": 50.6471458835,
            "estimated_diameter_max": 113.2504610618
        },
        "miles": {
            "estimated_diameter_min": 0.0314706677,
            "estimated_diameter_max": 0.0703705522
        },
        "feet": {
            "estimated_diameter_min": 166.1651821003,
            "estimated_diameter_max": 371.5566426699
        }
    },
    "is_potentially_hazardous_asteroid": false,
    "close_approach_data": [
        {
            "close_approach_date": "2004-04-22",
            "close_approach_date_full": "2004-Apr-22 21:51",
            "epoch_date_close_approach": 1082670660000,
            "relative_velocity": {
                "kilometers_per_second": "8.4953160462",
                "kilometers_per_hour": "30583.1377664976",
                "miles_per_hour": "19003.1724638551"
            },
            "miss_distance": {
                "astronomical": "0.1007555351",
                "lunar": "39.1939031539",
                "kilometers": "15072813.441670237",
                "miles": "9365811.9741817906"
            },
            "orbiting_body": "Earth"
        }
    ],
    "orbital_data": {
        "orbit_id": "10",
        "orbit_determination_date": "2017-04-06 09:12:52",
        "first_observation_date": "2004-04-24",
        "last_observation_date": "2004-04-30",
        "data_arc_in_days": 6,
        "observations_used": 39,
        "orbit_uncertainty": "8",
        "minimum_orbit_intersection": ".0991123",
        "jupiter_tisserand_invariant": "4.042",
        "epoch_osculation": "2453121.5",
        "eccentricity": ".376782080340397",
        "semi_major_axis": "1.7339569239315",
        "inclination": "13.11840312440516",
        "ascending_node_longitude": "40.14983206334449",
        "orbital_period": "833.9804752222973",
        "perihelion_distance": "1.080633026911954",
        "perihelion_argument": "152.0037922291694",
        "aphelion_distance": "2.387280820951046",
        "perihelion_time": "2453099.159346548752",
        "mean_anomaly": "9.643673300991269",
        "mean_motion": ".4316647819651198",
        "equinox": "J2000",
        "orbit_class": {
            "orbit_class_type": "AMO",
            "orbit_class_description": "Near-Earth asteroid orbits similar to that of 1221 Amor",
            "orbit_class_range": "1.017 AU < q (perihelion) < 1.3 AU"
        }
    },
    "is_sentry_object": false
}